{"type": "FeatureCollection", "features": [{"type": "Feature", "geometry": {"type": "Polygon", "coordinates": [[[-27.72775574651105, -60.0], [-27.619622910010783, -58.5], [-26.380300427327377, -54.0], [-26.119699572672623, -45.0], [-24.880300427327377, -40.5], [-24.72948997932125, -22.5], [-24.619699572672623, -21.0], [-23.380300427327377, -16.5], [-23.27051002067875, -15.0], [-23.22948997932125, 12.0], [-23.119699572672623, 13.5], [-21.880300427327377, 18.0], [-21.77051002067875, 19.5], [-21.619699572672623, 39.0], [-20.380300427327377, 43.5], [-20.119699572672623, 54.0], [-18.878583899116073, 58.5], [-18.626183006003693, 61.5], [-18.06504456672444, 64.5], [-18.8035060023629, 66.0], [-19.5, 66.41313515511894], [-21.0, 66.6903684794015], [-43.5, 66.74822675480708], [-46.5, 66.60195092246403], [-48.176805157707335, 66.0], [-49.620735672418, 64.5], [-50.101950922464034, 63.0], [-50.38030042732738, 55.5], [-51.61969957267262, 51.0], [-51.72948997932125, 49.5], [-51.77051002067875, 25.5], [-51.88030042732738, 24.0], [-53.11969957267262, 19.5], [-53.22948997932125, 18.0], [-53.27051002067875, -22.5], [-53.38030042732738, -24.0], [-54.61969957267262, -28.5], [-54.77051002067875, -51.0], [-54.88030042732738, -52.5], [-56.11969957267262, -57.0], [-56.248209621779964, -60.0]]]}, "properties": {"condition_index": 0, "planet": "sun", "house": 1, "overlap_count": 1}}, {"type": "Feature", "geometry": {"type": "Polygon", "coordinates": [[[-26.25, -60.0], [-26.253614377320105, 61.5], [-26.510671524766437, 64.5], [-27.0, 65.41677751052154], [-28.5, 66.34786521666308], [-30.0, 66.2099058376293], [-33.0, 64.88877171471219], [-36.0, 63.29587108149343], [-37.5, 62.16506564677895], [-39.665413619760365, 60.0], [-43.68897197233489, 54.0], [-44.719122033988874, 51.0], [-46.780120569410265, 46.5], [-48.2767119570221, 42.0], [-49.22189910965586, 37.5], [-49.77641600661601, 36.0], [-50.12141610088393, 34.5], [-50.37858389911607, 31.5], [-51.619771789392885, 27.0], [-51.880228210607115, 22.5], [-53.119771789392885, 18.0], [-53.380228210607115, 13.5], [-54.61969957267262, 9.0], [-54.88030042732738, 3.0], [-56.11969957267262, -1.5], [-56.38030042732738, -7.5], [-57.619771789392885, -12.0], [-57.880228210607115, -16.5], [-59.119771789392885, -21.0], [-59.380228210607115, -25.5], [-60.62141610088393, -30.0], [-60.87858389911607, -33.0], [-61.77810089034414, -36.0], [-62.7232880429779, -40.5], [-65.71989950895102, -49.5], [-69.38764009779172, -57.0], [-70.5956126908585, -60.0]]]}, "properties": {"condition_index": 1, "planet": "moon", "house": 4, "overlap_count": 1}}, {"type": "Feature", "geometry": {"type": "Polygon", "coordinates": [[[156.09561269085847, -60.0], [154.88764009779175, -57.0], [151.21989950895102, -49.5], [146.72491501171186, -36.0], [146.37862903583456, -34.5], [146.1214161008839, -31.5], [143.38022821060713, -21.0], [143.11977178939287, -16.5], [141.88022821060713, -12.0], [141.61977178939287, -7.5], [140.38022821060713, -3.0], [140.11977178939287, 1.5], [138.88022821060713, 6.0], [138.61977178939287, 10.5], [137.3785838991161, 15.0], [137.1214161008839, 18.0], [135.8785838991161, 22.5], [135.6214161008839, 25.5], [134.72189910965585, 28.5], [133.7780424714004, 33.0], [133.2219575285996, 34.5], [132.2767119570221, 39.0], [127.77964336811357, 52.5], [126.30070060603538, 55.5], [122.1661798607854, 61.5], [118.5, 65.15149593120088], [117.0, 66.16227545956747], [115.5, 66.60649794616253], [114.0, 66.72849746898086], [99.0, 66.61220899373788], [97.36684709179629, 66.0], [96.81201425963724, 64.5], [97.18129101521545, 63.0], [100.780100491049, 55.5], [102.2767119570221, 51.0], [103.22189910965584, 46.5], [104.1214161008839, 43.5], [104.3785838991161, 40.5], [105.61977178939289, 36.0], [105.88022821060711, 31.5], [107.1196995726726, 27.0], [107.3803004273274, 19.5], [108.6196995726726, 15.0], [108.8803004273274, 7.5], [110.1196995726726, 3.0], [110.3803004273274, -6.0], [111.6196995726726, -10.5], [111.8803004273274, -19.5], [113.1196995726726, -24.0], [113.3803004273274, -30.0], [114.61977178939289, -34.5], [114.88022821060711, -39.0], [115.22365542407871, -40.5], [115.77810089034416, -42.0], [116.72195752859959, -46.5], [117.27804247140041, -48.0], [118.2232880429779, -52.5], [120.27290016594114, -58.5], [120.59789727388556, -60.0]]]}, "properties": {"condition_index": 2, "planet": "mercury", "house": 7, "overlap_count": 1}}, {"type": "Feature", "geometry": {"type": "Polygon", "coordinates": [[[62.25, -60.0], [62.213437341813716, 63.0], [62.00254639196599, 64.5], [61.5, 65.46194406736011], [60.96194406736011, 66.0], [60.0, 66.50254639196599], [58.5, 66.71343734181369], [54.0, 66.75], [40.5, 66.7469731752439], [37.5, 66.50292441887702], [36.53573329830053, 66.0], [36.0, 65.47644382131757], [35.47597354884036, 64.5], [33.8803004273274, 58.5], [33.72948997932123, 42.0], [33.6196995726726, 40.5], [32.3803004273274, 36.0], [32.27051002067877, 34.5], [32.22948997932123, -6.0], [32.1196995726726, -7.5], [30.8803004273274, -12.0], [30.77051002067877, -13.5], [30.72948997932123, -45.0], [30.6196995726726, -46.5], [29.3803004273274, -51.0], [29.25, -60.0]]]}, "properties": {"condition_index": 3, "planet": "venus", "house": 10, "overlap_count": 1}}, {"type": "Feature", "geometry": {"type": "Polygon", "coordinates": [[[38.382702625770804, -60.0], [33.83455923744634, -55.5], [26.699299393964623, -45.0], [25.220324779814945, -42.0], [24.280152425463612, -39.0], [22.219879430589756, -34.5], [17.7232880429779, -21.0], [16.7767119570221, -16.5], [14.723288042977899, -10.5], [13.778042471400411, -6.0], [13.221957528599589, -4.5], [12.278042471400411, 0.0], [11.721957528599589, 1.5], [11.140194179754275, 4.5], [10.221957528599589, 7.5], [9.278042471400411, 12.0], [8.721957528599589, 13.5], [7.776711957022101, 18.0], [1.7801004910489766, 36.0], [-4.198504413331641, 48.0], [-8.333814163334921, 54.0], [-11.250812143722833, 57.0], [-14.571731663856049, 60.0], [-19.5, 63.30070060603538], [-22.5, 64.7796433549592], [-27.0, 66.27482363897693], [-30.0, 66.7200321875508], [-33.0, 66.52505821847944], [-34.30550580298732, 66.0], [-34.63193061923942, 64.5], [-33.65396873662672, 63.0], [-31.203782608679184, 60.0], [-26.719899508951023, 51.0], [-25.2232880429779, 46.5], [-24.27810089034414, 42.0], [-23.378583899116073, 39.0], [-23.121416100883927, 36.0], [-21.880228210607115, 31.5], [-21.619771789392885, 27.0], [-20.380300427327377, 22.5], [-20.119699572672623, 16.5], [-18.880300427327377, 12.0], [-18.619699572672623, 4.5], [-17.380300427327377, 0.0], [-17.119699572672623, -7.5], [-15.880300427327377, -12.0], [-15.619699572672623, -18.0], [-14.380300427327377, -22.5], [-14.119699572672623, -28.5], [-12.878583899116073, -33.0], [-12.621416100883927, -36.0], [-12.27641600661601, -37.5], [-11.721899109655858, -39.0], [-9.261447308491825, -49.5], [-5.612359902208276, -57.0], [-4.404387309141505, -60.0]]]}, "properties": {"condition_index": 4, "planet": "mars", "house": 2, "overlap_count": 1}}, {"type": "Feature", "geometry": {"type": "Polygon", "coordinates": [[[148.40436417872766, -60.0], [150.28017968623956, -55.5], [153.2767119570221, -46.5], [154.2219575285996, -42.0], [154.7780424714004, -40.5], [155.72189910965585, -36.0], [156.61977178939287, -33.0], [156.88022821060713, -28.5], [158.1196995726726, -24.0], [158.3803004273274, -18.0], [159.6196995726726, -13.5], [159.8803004273274, -6.0], [161.1196995726726, -1.5], [161.3803004273274, 6.0], [162.6196995726726, 10.5], [162.8803004273274, 18.0], [164.11977178939287, 22.5], [164.38022821060713, 27.0], [165.61977178939287, 31.5], [165.88022821060713, 36.0], [166.77810089034415, 39.0], [167.7219575285996, 43.5], [168.2780424714004, 45.0], [169.2385324674232, 49.5], [171.2808779660111, 54.0], [172.3110280276651, 57.0], [177.14390799446795, 64.5], [176.81258952570158, 66.0], [175.5, 66.52630010884131], [171.0, 66.749030736059], [135.0, 66.71343734181369], [133.5, 66.50254639196599], [132.5380559326399, 66.0], [132.0, 65.46194406736011], [131.497453608034, 64.5], [131.2530308991847, 61.5], [131.25, -60.0]]]}, "properties": {"condition_index": 5, "planet": "jupiter", "house": 9, "overlap_count": 1}}, {"type": "Feature", "geometry": {"type": "LineString", "coordinates": [[-3.7129726653052444, -85], [-3.7129726653052444, 85]]}, "properties": {"planet": "saturn", "aspect": "conjunction", "angle": "MC", "color": "#0066ff"}}], "properties": {"generation_mode": "contour", "truth_grid": null, "angle_sign": null, "aspect_overlay": {"angle": "MC", "aspect_set": "conjunction", "aspect_resolution": 0.5, "overlay_stage": "final", "timing": {"total_seconds": 0.0, "asc_grid_seconds": null, "asc_contour_seconds": null, "contour_grid_seconds": null, "contour_trace_seconds": null}, "feature_count": 1}}}